[{"OBJECT_NAME":"STARLINK-35806","OBJECT_ID":"2025-254R","EPOCH":"2026-03-09T16:57:25.622784","MEAN_MOTION":15.30238893,"ECCENTRICITY":0.00066235,"INCLINATION":53.1605,"RA_OF_ASC_NODE":232.7024,"ARG_OF_PERICENTER":176.9947,"MEAN_ANOMALY":183.1095,"EPHEMERIS_TYPE":0,"CLASSIFICATION_TYPE":"U","NORAD_CAT_ID":66363,"ELEMENT_SET_NO":999,"REV_AT_EPOCH":1897,"BSTAR":0.0010008103,"MEAN_MOTION_DOT":0.0002945,"MEAN_MOTION_DDOT":0},{"OBJECT_NAME":"TRANSPORTER-1 OBJECT AA","OBJECT_ID":"2021-006AA","EPOCH":"2026-03-09T22:58:14.761920","MEAN_MOTION":15.29982294,"ECCENTRICITY":0.00086604,"INCLINATION":97.2381,"RA_OF_ASC_NODE":112.457,"ARG_OF_PERICENTER":185.709,"MEAN_ANOMALY":174.4054,"EPHEMERIS_TYPE":0,"CLASSIFICATION_TYPE":"U","NORAD_CAT_ID":47437,"ELEMENT_SET_NO":999,"REV_AT_EPOCH":28414,"BSTAR":0.0002197941,"MEAN_MOTION_DOT":6.312e-5,"MEAN_MOTION_DDOT":0}]
